id,category,satellite_name,tle_line1,tle_line2,inclination,eccentricity,period,perigee,apogee,epoch,raan,arg_perigee,mean_anomaly,mean_motion,semi_major_axis,velocity,orbit_type,satellite_age,bstar,rev_num,norad_number,ephemeris_type,intl_designator
8024,active,STARLINK-31041,1 58537U 23192G   25017.48858634 -.00001033  00000+0 -22770-4 0  9996,2 58537  53.1605 195.9127 0001364  81.2281 278.8874 15.30194183 62265,53.1605,0.0001364,94.10570344587437,474.4346383964812,476.3042375791647,2025-01-17 11:43:33.859776,195.91270000000003,81.2281,15.30194183,15.30194183,6853.369437987823,7.6263514644829895,LEO,2,-2.2770000000000004e-05,6226,58537,0,23192G
8040,active,2023-193A,1 58553U 23193A   25017.59767735  .00076589  00000+0  62408-3 0  9995,2 58553  97.2350  35.9914 0009971 209.0207 151.0503 15.70342165 62851,97.235,0.0009971,91.69976022391275,351.33882228597304,364.77186385112054,2025-01-17 14:20:39.32304,35.9914,209.02070000000003,15.70342165,15.70342165,6736.055343068547,7.69247448713248,LEO,2,0.00062408,6285,58553,0,23193A
8041,active,2023-193B,1 58554U 23193B   25017.45219622  .00208460  00000+0  11330-2 0  9990,2 58554  97.2341  33.9654 0002586 145.2446 214.8991 15.79410976 62700,97.2341,0.0002586,91.17322988643079,330.51018895329616,333.9807279043962,2025-01-17 10:51:09.753408,33.9654,145.2446,15.79410976,15.79410976,6710.245458428846,7.707254224455855,LEO,2,0.0011330000000000001,6270,58554,0,23193B
8044,active,2023-194B,1 58558U 23194B   25013.60206676  .00019059  00000+0  78228-3 0  9997,2 58558  34.9948  84.9022 0000403 178.8698 181.2018 15.23358561 61084,34.9948,4.03e-05,94.52797501953317,495.57876819902594,496.1328009752633,2025-01-13 14:26:58.568064,84.9022,178.8698,15.23358561,15.23358561,6873.855784587145,7.6149784689778715,LEO,6,0.00078228,6108,58558,0,23194B
8045,active,2023-194C,1 58559U 23194C   25017.47330917  .00017438  00000+0  72554-3 0  9998,2 58559  34.9941  60.5952 0001403 295.4883  64.5686 15.22915247 61693,34.9941,0.0001403,94.55549170163373,496.2250970977948,498.1542753237445,2025-01-17 11:21:33.912288,60.5952,295.4883,15.22915247,15.22915247,6875.18968621077,7.614239716642109,LEO,2,0.00072554,6169,58559,0,23194C
8046,active,ALISIO-1,1 58562U 23185M   25017.56695590  .00005853  00000+0  35362-3 0  9997,2 58562  97.5963  89.0403 0005678 302.6220  57.4461 15.11056353 60522,97.5963,0.0005678,95.29757094373568,529.1900356970127,537.0382969442871,2025-01-17 13:36:24.98976,89.0403,302.622,15.11056353,15.11056353,6911.11416632065,7.594424243283238,LEO,2,0.00035362,6052,58562,0,23185M
8048,active,QPS-SAR-5 (TSUKUYOMI-I),1 58578U 23196A   25017.40307206  .00014872  00000+0  97106-3 0  9998,2 58578  42.0156  40.5467 0012205  82.9883 277.2333 15.07545137 59994,42.0156,0.0012205,95.51952804979265,535.3929927270128,552.2892068515985,2025-01-17 09:40:25.425984,40.5467,82.9883,15.07545137,15.07545137,6921.841099789305,7.588537336253165,LEO,2,0.00097106,5999,58578,0,23196A
8050,active,ARKTIKA-M 2,1 58584U 23198A   25016.83269736  .00000124  00000+0  00000+0 0  9996,2 58584  63.2369 211.0810 6901934 269.3717  17.9921  2.00610256  7964,63.236900000000006,0.6901934,717.8097614311404,1849.2952976000288,38507.16452475385,2025-01-16 19:59:05.051904,211.081,269.3717,2.00610256,2.00610256,26556.229911176935,3.874232481396274,MEO,3,0,796,58584,0,23198A
8052,active,STARLINK-31044,1 58589U 23200A   25017.10712873 -.00001094  00000+0 -65893-4 0  9996,2 58589  43.0018 273.4804 0001187 277.2290  82.8418 15.02534976 60938,43.0018,0.0001187,95.83803525382959,558.3962372896794,560.0431332429625,2025-01-17 02:34:15.922272,273.4804,277.229,15.02534976,15.02534976,6937.219685266321,7.580121448945753,LEO,2,-6.5893e-05,6093,58589,0,23200A
8053,active,STARLINK-31062,1 58590U 23200B   25017.39115190  .00001580  00000+0  13201-3 0  9991,2 58590  43.0008 273.8944 0001258 265.1791  94.8908 15.02542120 60958,43.0008,0.0001258,95.83757958146292,558.3249966015128,560.0703955418439,2025-01-17 09:23:15.52416,273.8944,265.1791,15.0254212,15.0254212,6937.197696071678,7.580133462487905,LEO,2,0.00013200999999999998,6095,58590,0,23200B
7598,active,STARLINK-30553,1 58056U 23158F   25017.35985817  .00000351  00000+0  41056-4 0  9992,2 58056  43.0024 132.6271 0001444 275.9230  84.1448 15.02535403 70905,43.0024,0.0001444,95.83800801797146,558.2166366248903,560.220105290422,2025-01-17 08:38:11.745888,132.6271,275.923,15.02535403,15.02535403,6937.218370957657,7.580122167001484,LEO,2,4.1056e-05,7090,58056,0,23158F
3957,active,STARLINK-3703,1 52101U 22029P   25017.61942432  .00000364  00000+0  40964-4 0  9999,2 52101  53.2175 157.1228 0001134  84.5933 275.5189 15.08833560157831,53.2175,0.0001134,95.43796202412148,539.115583669417,540.6845634060965,2025-01-17 14:51:58.261248,157.1228,84.5933,275.5189,15.0883356,6917.900073537757,7.590698567725617,LEO,2,4.0964e-05,15783,52101,0,22029P
8061,active,STARLINK-31079,1 58598U 23200K   25016.74489584  .00000149  00000+0  26115-4 0  9997,2 58598  43.0018 275.9339 0001056 278.0129  82.0593 15.02531850 60904,43.0018,0.0001056,95.83823464374483,558.4967357179466,559.9618785476132,2025-01-16 17:52:39.000576,275.9339,278.0129,15.0253185,15.0253185,6937.22930713278,7.580116192168271,LEO,3,2.6115e-05,6090,58598,0,23200K
8066,active,STARLINK-31080,1 58603U 23200Q   25017.06729615 -.00000091  00000+0  83370-5 0  9996,2 58603  43.0016 274.0512 0000747 285.3086  74.7674 15.02532883 60737,43.0016,7.47e-05,95.83816875440722,558.7079167506527,559.7443383341079,2025-01-17 01:36:54.38736,274.0512,285.3086,15.02532883,15.02532883,6937.22612754238,7.580117929293562,LEO,2,8.337e-06,6073,58603,0,23200Q
8060,active,STARLINK-31087,1 58597U 23200J   25016.41581336  .00001857  00000+0  15247-3 0  9998,2 58597  43.0026 277.7652 0001236 271.1315  88.9386 15.02550474 60718,43.0026,0.0001236,95.83704673604194,558.3145482673153,560.0294171814439,2025-01-16 09:58:46.274304,277.7652,271.1315,15.02550474,15.02550474,6937.17198272438,7.580147510750233,LEO,3,0.00015247,6071,58597,0,23200J
8069,active,STARLINK-31082,1 58606U 23200T   25017.39303545 -.00001157  00000+0 -70623-4 0  9996,2 58606  43.0026 272.1960 0000868 272.0672  88.0071 15.02523746 60978,43.0026,8.68e-05,95.83875155607691,558.6520978308154,559.8564051688763,2025-01-17 09:25:58.26288,272.196,272.0672,15.02523746,15.02523746,6937.254251499846,7.58010256419935,LEO,2,-7.0623e-05,6097,58606,0,23200T
8070,active,STARLINK-31069,1 58607U 23200U   25017.38636421 -.00000041  00000+0  12052-4 0  9990,2 58607  43.0022 272.1446 0001053 275.2529  84.8193 15.02534968 60974,43.0022,0.0001053,95.83803576410344,558.4892206549257,559.9501991258285,2025-01-17 09:16:21.867744,272.1446,275.2529,15.02534968,15.02534968,6937.219709890377,7.580121435492717,LEO,2,1.2052e-05,6097,58607,0,23200U
8073,active,STARLINK-31089,1 58610U 23200X   25016.97096022  .00001394  00000+0  11824-3 0  9991,2 58610  43.0026 274.9876 0000713 248.0944 111.9822 15.02532193 60902,43.0026,7.13e-05,95.83821276566817,558.7336269986072,559.722875747253,2025-01-16 23:18:10.963008,274.9876,248.09440000000004,15.02532193,15.02532193,6937.22825137293,7.580116768967947,LEO,2,0.00011824,6090,58610,0,23200X
8076,active,STARLINK-31054,1 58619U 23203B   25017.05027263  .00000873  00000+0  43210-4 0  9990,2 58619  43.0033 259.8863 0000279 323.3458  36.7374 15.25911957 59842,43.0033,2.79e-05,94.36979593705352,487.9937996944891,488.3769328379276,2025-01-17 01:12:23.555232,259.8863,323.3458,15.25911957,15.25911957,6866.185366266208,7.619230740322814,LEO,2,4.321e-05,5984,58619,0,23203B
8077,active,STARLINK-31134,1 58621U 23203D   25016.71168169 -.00000223  00000+0  13024-5 0  9997,2 58621  43.0028 261.6378 0001163 268.6447  91.4271 15.25898554 59798,43.0028,0.0001163,94.37062485085755,487.42703107608213,489.0241151443861,2025-01-16 17:04:49.298016,261.6378,268.6447,15.25898554,15.25898554,6866.225573110234,7.6192084321662294,LEO,3,1.3024e-06,5979,58621,0,23203D
8078,active,STARLINK-31133,1 58622U 23203E   25016.91484531 -.00000867  00000+0 -23311-4 0  9998,2 58622  43.0003 260.5846 0000908 271.9069  88.1678 15.25896909 59823,43.0003,9.08e-05,94.37072658753252,487.60705415606117,488.8539616162934,2025-01-16 21:57:22.634784,260.5846,271.9069,15.25896909,15.25896909,6866.230507886177,7.619205694194267,LEO,3,-2.3311e-05,5982,58622,0,23203E
8065,active,STARLINK-31071,1 58602U 23200P   25016.87414859 -.00000356  00000+0 -37614-5 0  9999,2 58602  43.0033 200.0528 0001117 271.5775  88.4948 15.25904190 61775,43.0033,0.0001117,94.37027628844771,487.44171043712504,488.9756214530971,2025-01-16 20:58:46.438176,200.0528,271.5775,15.2590419,15.2590419,6866.2086659451115,7.6192178128260695,LEO,3,-3.7614e-06,6177,58602,0,23200P
8081,active,STARLINK-30774,1 58625U 23203H   25017.03444090 -.00000085  00000+0  65807-5 0  9999,2 58625  43.0030 259.7590 0001459 273.5471  86.5213 15.25908579 59845,43.003,0.0001459,94.37000484941896,487.19372174394994,489.1972775907525,2025-01-17 00:49:35.69376,259.759,273.5471,15.25908579,15.25908579,6866.195499667351,7.619225117940667,LEO,2,6.580700000000001e-06,5984,58625,0,23203H
8082,active,STARLINK-31086,1 58626U 23203J   25017.01168202 -.00001375  00000+0 -42743-4 0  9993,2 58626  42.9972 258.7525 0001176 262.9388  97.1329 15.25902569 59851,42.9972,0.0001176,94.37037654007646,487.4060619833499,489.0209954052998,2025-01-17 00:16:49.326528,258.7525,262.9388,15.25902569,15.25902569,6866.213528694325,7.6192151148068605,LEO,2,-4.2743e-05,5985,58626,0,23203J
8085,active,STARLINK-31091,1 58629U 23203M   25017.09311964 -.00001539  00000+0 -49012-4 0  9997,2 58629  42.9994 259.3437 0001097 266.3697  93.7029 15.25906139 59856,42.9994,0.0001097,94.37015575176214,487.44959680876946,488.9560417073153,2025-01-17 02:14:05.536896,259.3437,266.3697,15.25906139,15.25906139,6866.202819258042,7.619221056771373,LEO,2,-4.9012000000000004e-05,5985,58629,0,23203M
